org_name,address,city,zip,state,phone,category,services
24/7 PARENTAL CARE HOME,8132 PECAN VALLEY AVENUE,LAS VEGAS,89131,NV,702-271-0353,senior-services,assisted-living-group
A & J CARE HOME,5217 W GOWAN ROAD,LAS VEGAS,89130,NV,702-645-2291,senior-services,assisted-living-group
A PRECIOUS GEMS ADULT CARE,1733 HUNTERS BLUFF DRIVE,NORTH LAS VEGAS,89032,NV,702-636-5501,senior-services,assisted-living-group
A R C H OF LAS  VEGAS,9483 LIGHTNING BAY CT ,LAS VEGAS,89123,NV,702-616-2588,senior-services,assisted-living-group
A VIBRANT SPIRIT SENIOR CARE,4354 E HARMON AVE ,LAS VEGAS,89121,NV,702-327-7137,senior-services,assisted-living-group
ABINGTON MANOR,478 PEARBERRY AVE ,LAS VEGAS,89183,NV,702-837-6968,senior-services,assisted-living-group
ABSOLUTE CIRCLE OF CARE ACKERMAN,7385 ACKERMAN AVE ,LAS VEGAS,89131,NV,702-655-1544,senior-services,assisted-living-group
ACACIA OASIS,8630 W. NEVSO DRIVE ,LAS VEGAS,89147,NV,702-942-8700,senior-services,assisted-living-group
ADULT COMFORT AND CARE HOME 2,10315 QUEENSBURY AVENUE,LAS VEGAS,89135,NV,702-629-4663,senior-services,assisted-living-group
ADULT COMFORT AND CARE HOME LLC,2105 CARROLL ST ,LAS VEGAS,89030,NV,702-629-4663,senior-services,assisted-living-group
ADVANCED CARE FOR THE ELDERLY LLC,9501 MULROONA COURT ,LAS VEGAS,89129,NV,702-838-5818,senior-services,assisted-living-group
AEGIS OF LAS VEGAS,9100 W DESERT INN RD ,LAS VEGAS,89117,NV,702-240-3070,senior-services,assisted-living-group
ALEBRIS HOME CARE INC,1012 PARADISE VIEW STREET ,HENDERSON,89052,NV,702-235-2584,senior-services,assisted-living-group
ALEBRIS OF CRYSTAL SPRINGS,243 SAXONDALE AVENUE ,LAS VEGAS,89123,NV,702-235-2584,senior-services,assisted-living-group
ALEBRIS OF SILVERADO RANCH,508 PEARBERRY AVE ,LAS VEGAS,89183,NV,702-837-6970,senior-services,assisted-living-group
ALEBRIS OF SUMMERLIN,9708 ENNISKEEN AVE ,LAS VEGAS,89129,NV,702-562-5074,senior-services,assisted-living-group
ALOHA HOME CARE II,7742 KIT CARSON AVENUE ,LAS VEGAS,89179,NV,702-858-4559,senior-services,assisted-living-group
ALTA CARE HOME,2007 ALTA DRIVE ,LAS VEGAS,89106,NV,702-384-6838,senior-services,assisted-living-group
ALZHEIMERS LUXURY CARE,2951 VIKING ROAD ,LAS VEGAS,89121,NV,702-471-7204,senior-services,assisted-living-group
AMEERY CARE,333 PRINCE GEORGE ROAD ,LAS VEGAS,89123,NV,801-644-4706,senior-services,assisted-living-group
AMEERY CARE II,271 E DESERT ROSE DR ,HENDERSON,89015,NV,702-608-7238,senior-services,assisted-living-group
AMERICAN SENIOR HOME,185 EAST WINDMILL LANE ,LAS VEGAS,89123,NV,702-403-3661,senior-services,assisted-living-group
AMERICAN SENIOR HOME – ROBINDALE,465 EAST ROBINDALE,LAS VEGAS,89123,NV,702-460-1267,senior-services,assisted-living-group
AMETHYST CARE HOME LLC,3702 INTERNET AVENUE,NORTH LAS VEGAS,89031,NV,702-636-8916,senior-services,assisted-living-group
ANGEL CARE RESIDENTIAL HOME,5559 TROOPER STREET ,LAS VEGAS,89120,NV,702-910-3611,senior-services,assisted-living-group
ANGEL PRESTIGE,3712 SPITZE DRIVE ,LAS VEGAS,89103,NV,702-871-8606,senior-services,assisted-living-group
ANGELS CARE,1905 S 17TH STREET ,LAS VEGAS,89104,NV,702-733-0992,senior-services,assisted-living-group
ANGELS HOUSE ADULT CARE,5496 TAMARUS STREET ,LAS VEGAS,89119,NV,702-262-9062,senior-services,assisted-living-group
AS TIME GOES BY III,4125 BUTLER ,LAS VEGAS,89129,NV,702-655-5557,senior-services,assisted-living-group
AS TIME GOES BY V,4149 JORY TRAIL ,LAS VEGAS,89108,NV,702-655-7175,senior-services,assisted-living-group
AS TIME GOES BY VII,4240 AL CARRISON,LAS VEGAS,89129,NV,702-683-4568,senior-services,assisted-living-group
AT ROYAL VILLA HOME CARE,2970 S TORREY PINES RD ,LAS VEGAS,89146,NV,702-257-0176,senior-services,assisted-living-group
ATRIA SEVILLE,2000 N RAMPART ,LAS VEGAS,89128,NV,702-804-6800,senior-services,assisted-living-group
ATRIA SUTTON,3185 E FLAMINGO ROAD ,LAS VEGAS,89121,NV,702-436-9000,senior-services,assisted-living-group
AVALON HEALTH ESTATES,7450 DEL REY AVE ,LAS VEGAS,89117,NV,702-240-6102,senior-services,assisted-living-group
AVENIR MEMORY CARE AT SUMMERLIN,7395 SMOKE RANCH ROAD ,LAS VEGAS,89128,NV,702-749-9090,senior-services,assisted-living-group
AVONDALE CARE HOME,6215 EAST OWENS AVENUE ,LAS VEGAS,89110,NV,702-856-6443,senior-services,assisted-living-group
AVONLI CARE HOME,3364 ROSARIO CIRCLE,LAS VEGAS,89121,NV,702-856-6443,senior-services,assisted-living-group
BECKYS HOME CARE,4055 CLOUD NINE LANE ,LAS VEGAS,89115,NV,702-643-3380,senior-services,assisted-living-group
BEE HIVE HOMES OF LOVELOCK LLC,685 AMHERST AVE ,LOVELOCK,89419,NV,775-273-2246,senior-services,assisted-living-group
BEE HIVE HOMES OF MESQUITE,780 WEST SECOND SOUTH ,MESQUITE,89027,NV,505-270-9989,senior-services,assisted-living-group
BEE HIVE HOMES OF PARADISE VALLEY INC,3841 E TWAIN ,LAS VEGAS,89121,NV,702-454-9080,senior-services,assisted-living-group
BEEHIVE HOMES OF HENDERSON,1000 GREENWAY ROAD ,HENDERSON,89002,NV,702-566-6127,senior-services,assisted-living-group
BELLA CARE HOME,5905 CONCERT DR ,LAS VEGAS,89107,NV,702-838-7990,senior-services,assisted-living-group
BELLA ESTATE CARE HOME,3140 COACHLIGHT CIRCLE ,LAS VEGAS,89117,NV,702-220-4281,senior-services,assisted-living-group
BELLA VITA CARE HOME,9924 WONDERFUL DAY DRIVE ,LAS VEGAS,89148,NV,917-797-3265,senior-services,assisted-living-group
BEST HOME CARE AT WYOMING,4423 E WYOMING AVE ,LAS VEGAS,89104,NV,702-776-6737,senior-services,assisted-living-group
BETTER DAYS GROUP HOME,261 E ELDORADO LANE ,LAS VEGAS,89123,NV,702-794-2822,senior-services,assisted-living-group
BETTER LIVING CARE HOME,706 LACY LANE,LAS VEGAS,89107,NV,702-878-4519,senior-services,assisted-living-group
BETTER LIVING FOR SENIORS,9712 ENNISKEEN AVE ,LAS VEGAS,89129,NV,702-360-0415,senior-services,assisted-living-group
BETTER LIVING HOME CARE II,7481 ROME BLVD ,LAS VEGAS,89131,NV,702-982-1753,senior-services,assisted-living-group
BILLMAN HOUSE,3646 BILLMAN AVE,LAS VEGAS,89121,NV,702-778-2753,senior-services,assisted-living-group
BLUE SKY MEMORY CARE,8025 AMIGO STREET ,LAS VEGAS,89123,NV,702-497-2166,senior-services,assisted-living-group
BROOKDALE CHEYENNE,6031 WEST CHEYENNE AVE ,LAS VEGAS,89108,NV,702-658-5882,senior-services,assisted-living-group
BROOKDALE LAS VEGAS,3025 E RUSSELL ROAD,LAS VEGAS,89120,NV,702-451-7896,senior-services,assisted-living-group
CARING HEARTS CARE HOME LLC,64 NORTH PEARL STREET ,LAS VEGAS,89110,NV,702-437-8448,senior-services,assisted-living-group
CARMELA HOMES,5500 CLEARY COURT ,LAS VEGAS,89109,NV,702-636-0150,senior-services,assisted-living-group
CASA NORTE GROUP HOME,4935  NORTH MILLER LN ,LAS VEGAS,89149,NV,702-656-0602,senior-services,assisted-living-group
CASA OLIVA,3209 CEDAR STREET,LAS VEGAS,89104,NV,702-431-0672,senior-services,assisted-living-group
CHARLESTON RIDGE SENIORS HOME,5313 PADUA WAY ,LAS VEGAS,89107,NV,702-258-1669,senior-services,assisted-living-group
"CHATEAU AMORE, LLC",7830 SPENCER ST,LAS VEGAS,89123,NV,702-203-3009,senior-services,assisted-living-group
CHERUBS RETIREMENT HOME,2624 VALPARAISO STREET ,LAS VEGAS,89108,NV,702-656-4857,senior-services,assisted-living-group
CHUTNEY RESIDENTIAL HOME,3881 CHUTNEY ST ,LAS VEGAS,89121,NV,702-866-6750,senior-services,assisted-living-group
CJ HOMES,1627 GABRIEL DRIVE ,LAS VEGAS,89119,NV,702-798-8246,senior-services,assisted-living-group
CLIMBING ROSE CARE HOME,3848 CLIMBING ROSE ST ,LAS VEGAS,89147,NV,702-362-1188,senior-services,assisted-living-group
CNC ALZHEIMERS HOME CARE,7765 CLEARWOOD AVE ,LAS VEGAS,89123,NV,702-798-8008,senior-services,assisted-living-group
CORONADO HEIGHTS SENIOR LIVING,2320 IONE ROAD,LAS VEGAS,89183,NV,725-200-3400,senior-services,assisted-living-group
COVENANT OF LOVE,1213 BALZAR AVE,LAS VEGAS,89106,NV,702-810-4830,senior-services,assisted-living-group
DARLINGTON MANOR,339 EMDEN ST,HENDERSON,89015,NV,702-361-5926,senior-services,assisted-living-group
DAWN GARDEN HOME CARE,9190 DAWN GARDEN AVE ,LAS VEGAS,89147,NV,702-405-0991,senior-services,assisted-living-group
DESERT INN RESIDENTIAL CARE,2845 BURNHAM AVENUE ,LAS VEGAS,89109,NV,702-894-9252,senior-services,assisted-living-group
DESERT SPRINGS SENIOR LIVING,6650 W FLAMINGO RD LAS VEGAS NV 89103,LAS VEGAS,89103,NV,702-732-2800,senior-services,assisted-living-group
DESERT VIEW SENIOR LIVING,3890 NORTH BUFFALO DRIVE ,LAS VEGAS,89129,NV,702-333-4346,senior-services,assisted-living-group
DESTINATIONS AT OAKEY ASSISTED LIVING COMMUNITY,3900 W OAKEY BLVD ,LAS VEGAS,89102,NV,702-258-7572,senior-services,assisted-living-group
DIAMOND RETIREMENT LIVING,335 W SHERWOOD DR,HENDERSON,89015,NV,702-496-6906,senior-services,assisted-living-group
DIGNIFIED CARE MANOR,2915 EL CAMINO RD,LAS VEGAS,89146,NV,702-227-5222,senior-services,assisted-living-group
"DIGNITY CARE HOME, LLC",3740 LA JUNTA DRIVE,LAS VEGAS,89120,NV,702-595-0058,senior-services,assisted-living-group
DUNCAN MANOR GROUP HOME,6165 DUNCAN DRIVE ,LAS VEGAS,89108,NV,702-396-4663,senior-services,assisted-living-group
ELKHORN JONES MEMORY CARE LLC,6017 ELKHORN ROAD,LAS VEGAS,89131,NV,702-247-7788,senior-services,assisted-living-group
EMILIE’S HOME CARE LLC,3856 JEWEL AVENUE,LAS VEGAS,89121,NV,702-434-5882,senior-services,assisted-living-group
EUROPEAN HOME CARE,3212 EL CAMINO RD ,LAS VEGAS,89146,NV,714-797-9927,senior-services,assisted-living-group
EUROPEAN SENIORS LIVING LLC,3045 S. MONTE CRISTO WAY,LAS VEGAS,89117,NV,702-906-1284,senior-services,assisted-living-group
FAIRWAY RESIDENTIAL CARE HOME,3817 FAIRWAY CIRCLE ,LAS VEGAS,89108,NV,702-646-9224,senior-services,assisted-living-group
FAITH SHARI 3,4504 LA ROCA CIR,LAS VEGAS,89121,NV,702-767-2881,senior-services,assisted-living-group
FAITH SHARI ADULT CARE II,6215 EAST OWENS AVE,LAS VEGAS,89110,NV,702-856-6443,senior-services,assisted-living-group
FAITH SHARI GROUP HOME,3364 ROSARIO CIRCLE ,LAS VEGAS,89121,NV,702-856-6443,senior-services,assisted-living-group
FLORENCE SENIOR CARE HOME,2338 FLORENCE AVENUE ,LAS VEGAS,89119,NV,702-798-0711,senior-services,assisted-living-group
FOREVER LIVING RESIDENCE HOME CARE LLC,1608 AZTEC WAY,LAS VEGAS,89169,NV,702-331-1695,senior-services,assisted-living-group
FORGET ME NOT HOME CARE I,5513 FLORA SPRAY ST,LAS VEGAS,89130,NV,702-461-5862,senior-services,assisted-living-group
GARDEN BREEZE ALZHEIMER VILLA,950 GARDEN BREEZE WAY ,LAS VEGAS,89123,NV,702-616-2489,senior-services,assisted-living-group
GENTLE BREEZE CARE HOME,6862 BAILE RD,LAS VEGAS,89146,NV,702-816-4591,senior-services,assisted-living-group
GENTLE SPRING CARE HOME,6418 SPRING MEADOW DRIVE ,LAS VEGAS,89103,NV,702-478-5997,senior-services,assisted-living-group
GOLDEN LAKE CARE HOME,9719 TUMBLE LAKE COURT,LAS VEGAS,89147,NV,702-471-0221,senior-services,assisted-living-group
GOLDEN MEADOWS RESIDENTIAL,4119 MEADOWGLEN CIRCLE ,LAS VEGAS,89121,NV,702-434-7040,senior-services,assisted-living-group
GOLDEN SUNSHINE HOME,8333 JEREMIAH LODGE AVE,LAS VEGAS,89131,NV,702-845-3974,senior-services,assisted-living-group
GOLDEN VILLA CARE HOME,1505 DUNEVILLE ST,LAS VEGAS,89146,NV,702-998-6185,senior-services,assisted-living-group
GOLDEN YEARS MEMORY CARE LLC,8920 LOGGERS MILL AVENUE,LAS VEGAS,89143,NV,702-435-1976,senior-services,assisted-living-group
"GOLDEN YEARS RESIDENTIAL CARE, LLC",2945 MAVERICK ST. ,LAS VEGAS,89108,NV,714-728-1270,senior-services,assisted-living-group
GOOD SAM CARE HOME INC,3226 KEMP STREET ,NORTH LAS VEGAS,89032,NV,702-636-1087,senior-services,assisted-living-group
GOOD SAMARITAN GROUP HOME INC,3696 S PECOS ROAD,LAS VEGAS,89121,NV,702-463-3653,senior-services,assisted-living-group
GOOD SHEPHERD REST HOME I,2830 CEDAR STREET,LAS VEGAS,89104,NV,702-432-9556,senior-services,assisted-living-group
GOOD SHEPHERD REST HOME IV,4089 E BOSTON AVENUE ,LAS VEGAS,89104,NV,702-457-5392,senior-services,assisted-living-group
GRACE OF MONACO – SECTION 10,7460 PALMYRA AVE ,LAS VEGAS,89117,NV,702-522-7741,senior-services,assisted-living-group
GRACE OF MONACO ANGEL PARK,8617 HIGHLANDVIEW AVE ,LAS VEGAS,89145,NV,702-360-5003,senior-services,assisted-living-group
HACIENDA CARE HOME,5320 SHARON MARIE COURT ,LAS VEGAS,89118,NV,702-854-9251,senior-services,assisted-living-group
HACIENDA HILL MANOR,5544 SURREY STREET ,LAS VEGAS,89119,NV,702-597-4697,senior-services,assisted-living-group
HAPPY ADULT CARE,1905 QUAIL POINT COURT,LAS VEGAS,89117,NV,702-838-6388,senior-services,assisted-living-group
HAPPY ADULT CARE II,2021 SEDONA MORNING DR ,LAS VEGAS,89128,NV,702-638-2888,senior-services,assisted-living-group
HASTINGS HOUSE,3253 HASTINGS AVENUE,LAS VEGAS,89107,NV,702-821-0823,senior-services,assisted-living-group
HEALTH LIFE LLC,5220 RANCHER AVE ,LAS VEGAS,89108,NV,702-515-1393,senior-services,assisted-living-group
HEALTHY HOME CARE,1812 STARBUCK DRIVE,LAS VEGAS,89108,NV,702-269-8217,senior-services,assisted-living-group
HELPING HANDS CARE HOME,2757 GALLANT HILLS DRIVE,LAS VEGAS,89135,NV,702-324-0314,senior-services,assisted-living-group
HELPING HANDS CARE HOME II,11745 STONEWALL SPRINGS AVE,LAS VEGAS,89138,NV,702-445-0088,senior-services,assisted-living-group
HERITAGE SPRINGS ASSISTED LIVING & MEMORY CARE,8720 W FLAMINGO ROAD,LAS VEGAS,89147,NV,702-360-6023,senior-services,assisted-living-group
HILLSIDE MANOR AT MOUNTAINS EDGE,9651 TRATTORIA ST,LAS VEGAS,89178,NV,702-244-0400,senior-services,assisted-living-group
HOLY ANGEL CARE HOME I,1517 GENTLE BROOK STREET,NORTH LAS VEGAS,89084,NV,702-443-1964,senior-services,assisted-living-group
HOUSE OF GRACE,7017 CARMEN BLVD ,LAS VEGAS,89128,NV,702-240-8555,senior-services,assisted-living-group
IN TOUCH RESIDENTIAL CARE I,4131 SATINWOOD DR,LAS VEGAS,89147,NV,702-362-1970,senior-services,assisted-living-group
IN TOUCH RESIDENTIAL CARE II,7457 WALNUT CREEK DRIVE,LAS VEGAS,89147,NV,702-876-7783,senior-services,assisted-living-group
INFINITE CARE,3821 TOPAZ ST,LAS VEGAS,89121,NV,702-722-2896,senior-services,assisted-living-group
JCR HOME CARE INC,7160 DARBY AVE ,LAS VEGAS,89117,NV,702-453-3861,senior-services,assisted-living-group
JOHNNY ANGEL’S CARE HOME,4460 MARLENA CIRCLE,LAS VEGAS,89129,NV,702-636-1140,senior-services,assisted-living-group
JOYFUL SENIOR CARE,5408 TOPAZ STREET ,LAS VEGAS,89120,NV,702-433-3735,senior-services,assisted-living-group
JOYFUL SENIOR CARE HAVEN 2,4353 JODI AVE ,LAS VEGAS,89120,NV,702-433-3735,senior-services,assisted-living-group
JOYS REST HOME,4235 PATTERSON AVE,LAS VEGAS,89104,NV,702-431-4143,senior-services,assisted-living-group
KIND HEARTS CARE HOME LLC,386 SEVERN CT,HENDERSON,89002,NV,702-629-3594,senior-services,assisted-living-group
L & J GROUP HOMECARE,1604 WILDWOOD DRIVE,LAS VEGAS,89108,NV,702-648-3880,senior-services,assisted-living-group
LAKE MEAD CARE HOME,4325 W LAKE MEAD BLVD,LAS VEGAS,89108,NV,702-339-6727,senior-services,assisted-living-group
LAKEVIEW TERRACE RETIREMENT COMMUNITY,180 VILLE DRIVE,BOULDER CITY,89005,NV,702-293-0181,senior-services,assisted-living-group
LAS VEGAS ALZHEIMER & MEMORY CARE 2,3225 BRAZOS STREET ,LAS VEGAS,89169,NV,702-471-7204,senior-services,assisted-living-group
LAS VEGAS ALZHEIMERS & MEMORY CARE 1,3224 BRAZOS STREET,LAS VEGAS,89169,NV,702-737-4396,senior-services,assisted-living-group
LAS VEGAS CHATEAU FOR SENIORS,4175 N TOMSIK ST,LAS VEGAS,89129,NV,702-478-8825,senior-services,assisted-living-group
LAS VENTANAS RETIREMENT COMM,10401 WEST CHARLESTON,LAS VEGAS,89135,NV,702-207-4215,senior-services,assisted-living-group
"LAURELWOOD GROUP HOME II,LLC",6565 MINTON CT,LAS VEGAS,89103,NV,702-580-5123,senior-services,assisted-living-group
LAURELWOOD GROUP HOME LLC,4752 TORRENCE DRIVE,LAS VEGAS,89103,NV,702-876-4224,senior-services,assisted-living-group
LEGACY HOUSE OF CENTENNIAL HILLS,6310 N. DURANGO DRIVE,LAS VEGAS,89149,NV,702-239-6778,senior-services,assisted-living-group
LIBERTY RESIDENTIAL CARE,3060 LIBERTY CIRCLE SOUTH,LAS VEGAS,89121,NV,702-457-7775,senior-services,assisted-living-group
LIFE SHARE CARE HOME NEVADA INC,7925 W ROSADA WAY,LAS VEGAS,89149,NV,408-854-0735,senior-services,assisted-living-group
LIVE N LOVE,4850 ARIZONA AVENUE,LAS VEGAS,89104,NV,702-756-5909,senior-services,assisted-living-group
"LIVINGSTON HOME II, LLC",5820 W. DESERT INN RD,LAS VEGAS,89146,NV,702-515-9959,senior-services,assisted-living-group
LIVINGSTON HOME LLC,5858 PALMYRA AVE,LAS VEGAS,89146,NV,702-202-4555,senior-services,assisted-living-group
"LV RESIDENTIAL CARE, LLC",1205 PONCE DE LEON STREET ,LAS VEGAS,89123,NV,702-954-4617,senior-services,assisted-living-group
MARTHA’S HOUSE SENIOR LIVING,1516 WINWOOD STREET,LAS VEGAS,89108,NV,702-636-8776,senior-services,assisted-living-group
MARVEL MANOR,4935 N DURANGO ,LAS VEGAS,89149,NV,702-395-7878,senior-services,assisted-living-group
"MASTER CARE GROUP HOMES, LLC",6562 W. MESA VISTA ,LAS VEGAS,89118,NV,702-331-5168,senior-services,assisted-living-group
MAYHILL MANOR,3855 MAYHILL AVE ,LAS VEGAS,89121,NV,702-454-9438,senior-services,assisted-living-group
MEADOWS CARE HOME,5125 MEADOWS LILLY AVE,LAS VEGAS,89108,NV,702-395-7674,senior-services,assisted-living-group
MERRILL GARDENS AT GREEN VALLEY RANCH,1935 PASEO VERDE PKWY,HENDERSON,89012,NV,702-568-7900,senior-services,assisted-living-group
MERRILL GARDENS AT SIENA HILLS,2920 W HORIZON RIDGE PARKWAY,HENDERSON,89052,NV,702-614-8733,senior-services,assisted-living-group
MERRILL GARDENS AT SIENA HILLS,2910 W HORIZON RIDGE PARKWAY ,HENDERSON,89052,NV,702-614-8733,senior-services,assisted-living-group
MIMI’S CARE HOME,3055 S PIONEER WAY,LAS VEGAS,89117+,NV,702-493-6745,senior-services,assisted-living-group
MOA FAMILY CARE LLC,4210 PATTERSON AVE,LAS VEGAS,89104,NV,702-431-4390,senior-services,assisted-living-group
MOA FAMILY CARE LLC,4847 NEW YORK STREET,LAS VEGAS,89104,NV,702-431-4390,senior-services,assisted-living-group
"MONARCH GROUP HOME, LLC.",6112 FISHER AVE,LAS VEGAS,89130,NV,702-581-6931,senior-services,assisted-living-group
MONTHILL PALMS,4062 MONTHILL AVE,LAS VEGAS,89121,NV,702-451-3284,senior-services,assisted-living-group
MORNING GLORY ALZHEIMERS HOME,1821 NAVARRE LANE,HENDERSON,89014,NV,702-434-1740,senior-services,assisted-living-group
MORNING STAR CARE HOME,7560 SILVER LEAF WAY ,LAS VEGAS,89147,NV,702-220-5551,senior-services,assisted-living-group
MOTHERS BEST CARE FOR THE ELDERLY,1225 S 8TH STREET,LAS VEGAS,89104,NV,702-382-1034,senior-services,assisted-living-group
MOTHER’S TOUCH SENIOR HOME,8918 KING JOHN COURT,LAS VEGAS,89149,NV,650-400-6090,senior-services,assisted-living-group
MYSTIC HAVEN,3421 CAMSORE POINT LANE,LAS VEGAS,89129,NV,702-255-9171,senior-services,assisted-living-group
NAZARENE SENIOR CARE HOME,5362 TOPAZ ST,LAS VEGAS,89120,NV,702-241-9515,senior-services,assisted-living-group
NEURORESTORATIVE NEVADA,7240 W. OAKEY BLVD,LAS VEGAS,89117,NV,702-423-9573,senior-services,assisted-living-group
NEVADA MEMORY CARE,2299 MONTESSOURI ST,LAS VEGAS,89117,NV,702-423-8833,senior-services,assisted-living-group
NOVA ALL STAR CARE HOMES,5525 ROSE THICKET STREET,LAS VEGAS,89130,NV,702-873-6243,senior-services,assisted-living-group
"NV HOME CARE FACILITIES, LLC",5268 CASPIAN DRIVE,LAS VEGAS,89118,NV,702-889-0518,senior-services,assisted-living-group
OAKMONT OF WEST LAS VEGAS,3250 SOUTH FORT APACHE ROAD,LAS VEGAS,89117,NV,702-628-5963,senior-services,assisted-living-group
OHANA ADULT CARE,1566 MT HOOD STREET ,LAS VEGAS,89110,NV,702-335-9467,senior-services,assisted-living-group
OLIVE GROVE RESIDENTIAL CARE FACILITY,9446 BACK BAY CIRCLE,LAS VEGAS,89123,NV,702-413-6947,senior-services,assisted-living-group
PACIFICA SENIOR LIVING GREEN VALLEY,2620 E ROBINDALE ROAD,HENDERSON,89074,NV,702-992-0000,senior-services,assisted-living-group
PACIFICA SENIOR LIVING REGENCY,3985 SOUTH PEARL STREET ,LAS VEGAS,89121,NV,702-436-6400,senior-services,assisted-living-group
PACIFICA SENIOR LIVING REGENCY,4025 SOUTH PEARL STREET,LAS VEGAS,89121,NV,702-436-6400,senior-services,assisted-living-group
PACIFICA SENIOR LIVING SAN MARTIN,8374 W CAPOVILLA AVE,LAS VEGAS,89113,NV,702-222-3600,senior-services,assisted-living-group
PACIFICA SENIOR LIVING SPRING VALLEY,8880 W TROPICANA AVE ,LAS VEGAS,89147,NV,702-920-0710,senior-services,assisted-living-group
PALM VALLEY ASSISTED LIVING,5975 W TWAIN AVE,LAS VEGAS,89103,NV,702-368-7700,senior-services,assisted-living-group
PALMS CARE HOME,8351 W HAMMER LN,LAS VEGAS,89149,NV,702-570-7598,senior-services,assisted-living-group
PARADISE CREST HOME CARE,4462 FARMCREST DRIVE,LAS VEGAS,89121,NV,702-433-2879,senior-services,assisted-living-group
PARADISO,7952 MONACO BAY COURT,LAS VEGAS,89117,NV,702-255-1273,senior-services,assisted-living-group
POET’S WALK HENDERSON,1750 WEST HORIZON RIDGE PARKWAY,HENDERSON,89012,NV,702-899-8028,senior-services,assisted-living-group
PRECIOUS CARE GROUP,7345 ACACIA WOODS CT,LAS VEGAS,89113,NV,725-605-6530,senior-services,assisted-living-group
PRESTIGE ASSISTED LIVING AT HENDERSON,1050 E LAKE MEAD PARKWAY,HENDERSON,89015,NV,702-564-1771,senior-services,assisted-living-group
PRESTIGE ASSISTED LIVING AT MIRA LOMA,2520 WIGWAM PARKWAY ,HENDERSON,89074,NV,702-260-8400,senior-services,assisted-living-group
PRIME CARE FACILITY,4920 RONAN DRIVE,LAS VEGAS,89110,NV,702-453-0581,senior-services,assisted-living-group
PRINCESS II GROUP HOME,10019 PRINCESS CUT ST ,LAS VEGAS,89183,NV,702-385-5588,senior-services,assisted-living-group
QUALITY CARE 4 SENIORS LLC,4369 ADELPHI AVENUE,LAS VEGAS,89120,NV,702-595-0058,senior-services,assisted-living-group
R & L ADULT CARE HOME #2,1013 STONEYPEAK AVE ,LAS VEGAS,89081,NV,702-478-5252,senior-services,assisted-living-group
R & L ADULT CARE HOME INC,1811 S 7TH STREET,LAS VEGAS,89104,NV,702-360-4445,senior-services,assisted-living-group
RAFAEL HOME CARE,3804 APACHE LANE ,LAS VEGAS,89107,NV,702-880-5852,senior-services,assisted-living-group
RAINBOW CONNECTIONS GROUP CARE HOME,820 ANTIGUA ST,LAS VEGAS,89145,NV,702-358-9917,senior-services,assisted-living-group
ROSARIOS GROUP HOME,2885 RED ROCK STREET,LAS VEGAS,89146,NV,702-343-0073,senior-services,assisted-living-group
ROSS SENIOR RESIDENCE,5935 W SADDLE AVE ,LAS VEGAS,89103,NV,702-365-6124,senior-services,assisted-living-group
ROYAL HAVEN,1913 COLLINS AVENUE,LAS VEGAS,89106,NV,702-366-9127,senior-services,assisted-living-group
RUNAMAR HOME HEALTH INC,7907 MOUNTAIN MAN WAY ,LAS VEGAS,89113,NV,702-221-8055,senior-services,assisted-living-group
SACHELE SENIOR GUEST HOME,3398 BANCROFT CIRCLE,LAS VEGAS,89121,NV,702-450-3152,senior-services,assisted-living-group
SACHELE SENIOR GUEST HOME II,3397 EL CAMINO REAL ,LAS VEGAS,89121,NV,702-435-9544,senior-services,assisted-living-group
SAINT ANNE RESIDENTIAL CARE CORP,3158 KINGSPOINT AVENUE,LAS VEGAS,89120,NV,702-433-9470,senior-services,assisted-living-group
SAINT BENEDICTS HOME,3625 S ROSEWOOD DR,LAS VEGAS,89121,NV,702-454-0532,senior-services,assisted-living-group
SAINT BENEDICTS HOME II,4532 E FLAMINGO ROAD,LAS VEGAS,89121,NV,702-435-1742,senior-services,assisted-living-group
SAN VICENTE HOME CARE,8460 RANCHO DESTINO RD ,LAS VEGAS,89123,NV,702-361-2358,senior-services,assisted-living-group
SANTA FE CARE HOME I,4621 EXPOSITION AVE,LAS VEGAS,89102,NV,702-685-8133,senior-services,assisted-living-group
SENIOR RESIDENTIAL CARE,2269 PACINI COURT ,HENDERSON,89052,NV,702-325-5355,senior-services,assisted-living-group
SENIOR RESIDENTIAL CARE – CENTENNIAL,8204 CABIN SPRINGS AVE,LAS VEGAS,89131,NV,702-395-7555,senior-services,assisted-living-group
SENIOR RESIDENTIAL CARE-SUMMERLIN,80 ALERION ST,LAS VEGAS,89138,NV,702-685-0322,senior-services,assisted-living-group
"SHINY STARS HOME CARE II, LLC",1032 SILVER CREEK,LAS VEGAS,89183,NV,725-777-3812,senior-services,assisted-living-group
SILVER HORIZON LLC,1900 ELIMINATOR DRIVE ,LAS VEGAS,89146,NV,702-463-3585,senior-services,assisted-living-group
SILVER HORIZON-HICKAM,8280 HICKAM AVENUE ,LAS VEGAS,89129,NV,702-489-8352,senior-services,assisted-living-group
SILVER SKY ASSISTED LIVING,8220 SILVER SKY DRIVE,LAS VEGAS,89145,NV,702-835-9040,senior-services,assisted-living-group
SILVER SKY AT DEER SPRINGS ASSISTED LIVING,6741 N DECATUR BLVD BLDG #3,LAS VEGAS,89130,NV,702-462-7700,senior-services,assisted-living-group
SPENCER LUXURY CARE LP,1951 PAPAGO LANE,LAS VEGAS,89169,NV,702-433-3735,senior-services,assisted-living-group
SPRING VALLEY ALZ CARE CENTER,6428 CRYSTAL DEW DRIVE,LAS VEGAS,89118,NV,702-277-8837,senior-services,assisted-living-group
SPRING VALLEY ALZHEIMERS CARE,5310 SHARON MARIE COURT,LAS VEGAS,89118,NV,702-251-1978,senior-services,assisted-living-group
SPRUCE OAK RESIDENTIAL CARE FACILITY,4618 SPRUCE OAK DR ,NORTH LAS VEGAS,89031,NV,702-462-2031,senior-services,assisted-living-group
ST FRANCIS GROUP HOME #2,4151 E ST LOUIS AVENUE,LAS VEGAS,89104,NV,702-457-4961,senior-services,assisted-living-group
ST FRANCIS GROUP HOME CARE III,4121 E BOSTON AVE ,LAS VEGAS,89104,NV,702-457-2378,senior-services,assisted-living-group
ST FRANCIS GROUP HOME CARE V,4245 E BALTIMORE AVE ,LAS VEGAS,89104,NV,702-431-4792,senior-services,assisted-living-group
ST JEAN SENIOR CARE,6924 ACOMA CRT,LAS VEGAS,89145,NV,702-521-4797,senior-services,assisted-living-group
ST JEREMIAH CARE HOME,3918 CHEROKEE AVENUE ,LAS VEGAS,89121,NV,702-823-3277,senior-services,assisted-living-group
ST JOSEPH ADULT GROUP CARE V,4110 E BOSTON AVE,LAS VEGAS,89104,NV,702-431-7421,senior-services,assisted-living-group
ST JOSEPH GROUP CARE I,4309 THYME AVE,LAS VEGAS,89110,NV,702-438-3017,senior-services,assisted-living-group
ST JOSEPH GROUP CARE III,4018 E BALTIMORE AVE,LAS VEGAS,89104,NV,702-432-9117,senior-services,assisted-living-group
ST JOSEPH GROUP CARE VI,4028 E BOSTON AVENUE,LAS VEGAS,89104,NV,702-641-4766,senior-services,assisted-living-group
ST JUDE HOME CARE,6880 HATHAWAY DRIVE,LAS VEGAS,89156,NV,702-438-5046,senior-services,assisted-living-group
ST MICHAEL GROUP HOME,3980 PLACITA AVENUE,LAS VEGAS,89121,NV,702-457-2315,senior-services,assisted-living-group
STAR HORIZONS GROUP HOME,2122 WEBSTER ST ,NORTH LAS VEGAS,89030,NV,702-209-6627,senior-services,assisted-living-group
STERLING RIDGE,4255 SPENCER STREET ,LAS VEGAS,89119,NV,702-732-0652,senior-services,assisted-living-group
SUMMERLIN RETIREMENT HOME,309 LA RUE COURT,LAS VEGAS,89145,NV,702-860-5118,senior-services,assisted-living-group
"SUMMERLIN RETIREMENT LIVING, LLC",10128 SNOW CREST PLACE ,LAS VEGAS,89134,NV,702-984-0206,senior-services,assisted-living-group
SUNRISE OF HENDERSON,1555 WEST HORIZON RIDGE PARKWAY ,HENDERSON,89012,NV,702-837-6582,senior-services,assisted-living-group
SUNSHINE CARE HOME,3970 MARYLAND AVE ,LAS VEGAS,89121,NV,702-914-9858,senior-services,assisted-living-group
SUNSHINE CARE HOME II,3045 SOUTH TIOGA WAY ,LAS VEGAS,89117,NV,702-631-1551,senior-services,assisted-living-group
SUNSHINE VALLEY ELDER CARE,465 RIDGEWAY RD ,HENDERSON,89015,NV,702-558-7662,senior-services,assisted-living-group
SWEET HEART CARE HOME,213 RED HORIZON TERRACE,HENDERSON,89015,NV,702-558-7468,senior-services,assisted-living-group
SWEET HOME BELMONT LLC,2908 BELMONT DR ,HENDERSON,89074,NV,702-473-9752,senior-services,assisted-living-group
TENDER LOVING CARE SENIOR RESIDENCE,1401 CASA DEL REY CRT ,LAS VEGAS,89117,NV,702-228-2994,senior-services,assisted-living-group
THE BRIDGE AT PARADISE VALLEY ASSISTED LIVING,2205 EAST HARMON AVE,LAS VEGAS,89119,NV,702-369-6964,senior-services,assisted-living-group
THE ELDERLY ARISTOCRAT,2380 MOHIGAN WAY,LAS VEGAS,89109,NV,702-796-9952,senior-services,assisted-living-group
THE ELDERLY ARISTOCRAT III,3700 TIOGA WAY ,LAS VEGAS,89109,NV,702-768-2304,senior-services,assisted-living-group
"THE HOMESTEAD AT BOULDER CITY, INC.",1401 MEDICAL PARK DR ,BOULDER CITY,89005,NV,702-294-8720,senior-services,assisted-living-group
THE MEADOWS HOME,4300 DEL MONTE AVENUE,LAS VEGAS,89102,NV,702-258-1212,senior-services,assisted-living-group
THE ROSE OF SHARON,355 EVAN PICONE,HENDERSON,89014,NV,702-450-2082,senior-services,assisted-living-group
THE ROYAL PLACE INC,3644 MOUNTCREST DRIVE ,LAS VEGAS,89121,NV,702-476-1533,senior-services,assisted-living-group
THE VICTORIAN CENTER LLC I,11 WHITEWIND LANE,LAS VEGAS,89110,NV,702-459-2561,senior-services,assisted-living-group
THE VICTORIAN CENTER LLC II,1895 PRISCILLA ST,LAS VEGAS,89115,NV,702-453-2565,senior-services,assisted-living-group
THERESIANE ADULT GROUP CARE HOME,6620 ELLERHURST DRIVE ,LAS VEGAS,89103,NV,702-251-7886,senior-services,assisted-living-group
TLC COSTA BRAVA LLC,6737 COSTA BRAVA ROAD,LAS VEGAS,89146,NV,702-556-1639,senior-services,assisted-living-group
TOUCH OF LOVE II,3000 EMMONS AVENUE ,NORTH LAS VEGAS,89030,NV,702-649-7415,senior-services,assisted-living-group
"TRANQUIL BREEZES CARE HOME, LLC",237 PALMETTO POINTE DRIVE ,HENDERSON,89012,NV,702-292-4764,senior-services,assisted-living-group
TRINIBELLE ELDERLY CARE,5319 STAMPA AVE,LAS VEGAS,89146,NV,702-253-5627,senior-services,assisted-living-group
TRUE LOVING CARE II LLC,8020 FAIRFIELD AVE,LAS VEGAS,89123,NV,702-480-5339,senior-services,assisted-living-group
V N SENIOR CARE INC OF SEVEN HILLS,993 GOLD BEAR DRIVE,HENDERSON,89052,NV,702-361-1164,senior-services,assisted-living-group
V NICHOLAS ADULT CARE HOME #2,4304 EL CAMINO AVENUE,LAS VEGAS,89102,NV,702-220-8089,senior-services,assisted-living-group
VEGAS VALLEY SENIOR CARE RESIDENCE,6085 S LAMB BLVD,LAS VEGAS,89120,NV,702-724-0218,senior-services,assisted-living-group
VETERANS VILLAGE #3 ASSISTED LIVING,100 SOUTH 14TH STREET ,LAS VEGAS,89101,NV,702-333-4100,senior-services,assisted-living-group
VINTAGE PARK AT SAN MARTIN,7230 GAGNIER BLVD ,LAS VEGAS,89113,NV,702-263-6313,senior-services,assisted-living-group
WASHINGTON SENIOR GUEST HOME,3709 W WASHINGTON AVE ,LAS VEGAS,89107,NV,702-870-7157,senior-services,assisted-living-group
"WE CARE RESIDENTIAL HOME, LLC",3858 MOONGATE CIRCLE ,LAS VEGAS,89103,NV,702-945-6682,senior-services,assisted-living-group
WENTWORTH OF LAS VEGAS,2620 LAKE SAHARA DR ,LAS VEGAS,89117,NV,702-233-9800,senior-services,assisted-living-group
WEST MORNING STAR CARE HOME,7375 MOUNTAIN ASH DRIVE,LAS VEGAS,89147,NV,702-222-0858,senior-services,assisted-living-group
WICKER BASKET,3020 BEAUFORT CT ,NORTH LAS VEGAS,89032,NV,702-631-0791,senior-services,assisted-living-group
WINDSONG CARE HOME L.L.C.,209 WINDSONG ST,LAS VEGAS,89145,NV,702-815-9998,senior-services,assisted-living-group
"YOUR WAY OF LIVING, LLC",9900 VERMILLION CLIFFS AVE ,LAS VEGAS,89147,NV,725-244-4232,senior-services,assisted-living-group